STARLINK-2005_new
1 17600C 21009BE  21326.10330897  .00009420  00000-0  63110-3 0  3267
2 17600  53.0556 203.2772 0005693 310.6882 159.8692 15.06377313    14
STARLINK-2005_old
1 27600C 21009BE  21325.16389133 -.00043627  00000-0 -29248-2 0  3250
2 27600  53.0549 207.4924 0005723 307.9210 105.3143 15.06407796    15
